{"type":"FeatureCollection","features":[
{"type":"Feature","geometry":{"type":"Polygon","coordinates":[[[-73.999851,40.762266],[-74.000027,40.762023],[-74.000038,40.762027],[-74.000104,40.762055],[-74.000283,40.761809],[-74.000801,40.762028],[-74.000259,40.762439],[-73.999851,40.762266]]]},"properties":{"bbl":"1010900001","addr":"520 West Street","zone":"C6-4","lm":0,"owner":"People's Rep of China","own":"X","floors":19,"year":1961,"lotarea":27700,"bldgarea":351438,"built":12.69,"allowed":10.0,"unbuilt":0,"ft":285,"side":"n"}},
{"type":"Feature","geometry":{"type":"Polygon","coordinates":[[[-74.000151,40.761753],[-73.999972,40.762],[-73.999902,40.76197],[-74.00008,40.761724],[-74.000151,40.761753]]]},"properties":{"bbl":"1010900010","addr":"647 West 42 Street","zone":"C6-4","lm":0,"owner":"Kandila Rlty Corp","own":"","floors":4,"year":1920,"lotarea":2110,"bldgarea":7896,"built":3.74,"allowed":10.0,"unbuilt":13209,"ft":353,"side":"n"}},
{"type":"Feature","geometry":{"type":"Polygon","coordinates":[[[-73.999455,40.762099],[-73.999631,40.761856],[-73.998997,40.761588],[-73.999175,40.761342],[-74.00008,40.761724],[-73.999902,40.76197],[-73.999972,40.762],[-74.000151,40.761753],[-74.000283,40.761809],[-74.000104,40.762055],[-74.000038,40.762027],[-74.000027,40.762023],[-73.999851,40.762266],[-73.999455,40.762099]]]},"properties":{"bbl":"1010907501","addr":"635 West 42 Street","zone":"C6-4","lm":0,"owner":"Unavailable Owner","own":"","floors":46,"year":2005,"lotarea":45600,"bldgarea":373671,"built":8.19,"allowed":10.0,"unbuilt":82536,"ft":405,"side":"n"}},
{"type":"Feature","geometry":{"type":"Polygon","coordinates":[[[-73.999503,40.761191],[-73.999853,40.760708],[-74.001433,40.761373],[-74.00108,40.761853],[-73.999503,40.761191],[-73.999503,40.761191]]]},"properties":{"bbl":"1010890001","addr":"1 River Place","zone":"C6-4","lm":0,"owner":"River Place I LLC","own":"","floors":40,"year":1999,"lotarea":101043,"bldgarea":887879,"built":8.79,"allowed":10.0,"unbuilt":122262,"ft":432,"side":"s"}},
{"type":"Feature","geometry":{"type":"Polygon","coordinates":[[[-73.998205,40.761254],[-73.998383,40.761008],[-73.998708,40.761145],[-73.999175,40.761342],[-73.998997,40.761588],[-73.999631,40.761856],[-73.999455,40.762099],[-73.998429,40.761666],[-73.998029,40.761497],[-73.998205,40.761254]]]},"properties":{"bbl":"1010907502","addr":"605 West 42 Street","zone":"C6-4","lm":0,"owner":"Unavailable Owner","own":"","floors":60,"year":2008,"lotarea":70294,"bldgarea":888123,"built":12.63,"allowed":10.0,"unbuilt":0,"ft":739,"side":"n"}},
{"type":"Feature","geometry":{"type":"Polygon","coordinates":[[[-73.998556,40.76079],[-73.998741,40.760529],[-73.998862,40.76058],[-73.998871,40.760568],[-73.998951,40.760602],[-73.999039,40.760478],[-73.999345,40.760606],[-73.999406,40.760519],[-73.999406,40.760519],[-73.999853,40.760708],[-73.999503,40.761191],[-73.999503,40.761191],[-73.998556,40.76079]]]},"properties":{"bbl":"1010897502","addr":"533 11 Avenue","zone":"C6-4","lm":0,"owner":"Unavailable Owner","own":"","floors":59,"year":2005,"lotarea":49823,"bldgarea":954682,"built":19.16,"allowed":10.0,"unbuilt":0,"ft":773,"side":"s"}},
{"type":"Feature","geometry":{"type":"Polygon","coordinates":[[[-73.997819,40.760469],[-73.997996,40.760227],[-73.998103,40.760271],[-73.998276,40.760035],[-73.998593,40.760169],[-73.998243,40.760648],[-73.997819,40.760469]]]},"properties":{"bbl":"1010700001","addr":"563 West 41 Street","zone":"C6-4","lm":0,"owner":"Federal Express Corporation","own":"","floors":3,"year":1940,"lotarea":23107,"bldgarea":68085,"built":2.95,"allowed":10.0,"unbuilt":162904,"ft":1084,"side":"s"}},
{"type":"Feature","geometry":{"type":"Polygon","coordinates":[[[-73.997341,40.760896],[-73.997183,40.760829],[-73.997362,40.760582],[-73.998072,40.760882],[-73.997718,40.761371],[-73.997245,40.761172],[-73.997421,40.76093],[-73.997341,40.760896]]]},"properties":{"bbl":"1010710001","addr":"555 West 42 Street","zone":"C6-4","lm":0,"owner":"Comref River LLC","own":"X","floors":44,"year":1987,"lotarea":37655,"bldgarea":388073,"built":10.31,"allowed":10.0,"unbuilt":0,"ft":1136,"side":"n"}},
{"type":"Feature","geometry":{"type":"Polygon","coordinates":[[[-73.997399,40.760292],[-73.997576,40.76005],[-73.997764,40.760129],[-73.997587,40.760371],[-73.997399,40.760292]]]},"properties":{"bbl":"1010700054","addr":"548 West 42 Street","zone":"C6-4","lm":0,"owner":"Federal Express Corporation","own":"","floors":0,"year":0,"lotarea":5695,"bldgarea":0,"built":0.0,"allowed":10.0,"unbuilt":56950,"ft":1241,"side":"s"}},
{"type":"Feature","geometry":{"type":"Polygon","coordinates":[[[-73.997587,40.760371],[-73.997764,40.760129],[-73.997576,40.76005],[-73.997215,40.759898],[-73.997147,40.759869],[-73.996969,40.760112],[-73.996786,40.760034],[-73.996962,40.759793],[-73.996919,40.759775],[-73.997093,40.759537],[-73.998276,40.760035],[-73.998103,40.760271],[-73.997996,40.760227],[-73.997819,40.760469],[-73.997587,40.760371]]]},"properties":{"bbl":"1010700005","addr":"521 West 41 Street","zone":"C6-4","lm":0,"owner":"Consolidated Edison Co.of N.Y.,Inc.","own":"X","floors":0,"year":0,"lotarea":50227,"bldgarea":0,"built":0.0,"allowed":10.0,"unbuilt":502270,"ft":1292,"side":"s"}},
{"type":"Feature","geometry":{"type":"Polygon","coordinates":[[[-73.996537,40.760873],[-73.996712,40.760631],[-73.996632,40.760597],[-73.996811,40.76035],[-73.997362,40.760582],[-73.997183,40.760829],[-73.997026,40.760763],[-73.99685,40.761005],[-73.996537,40.760873]]]},"properties":{"bbl":"1010717502","addr":"529 West 42 Street","zone":"C6-4","lm":0,"owner":"Unavailable Owner","own":"","floors":9,"year":1912,"lotarea":27570,"bldgarea":240413,"built":8.72,"allowed":10.0,"unbuilt":35290,"ft":1322,"side":"n"}},
{"type":"Feature","geometry":{"type":"Polygon","coordinates":[[[-73.997215,40.759898],[-73.997576,40.76005],[-73.997399,40.760292],[-73.997037,40.76014],[-73.997215,40.759898]]]},"properties":{"bbl":"1010700050","addr":"536 West 42 Street","zone":"C6-4","lm":0,"owner":"Federal Express Corporation","own":"","floors":0,"year":0,"lotarea":11603,"bldgarea":0,"built":0.0,"allowed":10.0,"unbuilt":116030,"ft":1334,"side":"s"}},
{"type":"Feature","geometry":{"type":"Polygon","coordinates":[[[-73.996969,40.760112],[-73.997147,40.759869],[-73.997215,40.759898],[-73.997037,40.76014],[-73.996969,40.760112]]]},"properties":{"bbl":"1010707502","addr":"534 West 42 Street","zone":"C6-4","lm":0,"owner":"Unavailable Owner","own":"","floors":9,"year":2010,"lotarea":1934,"bldgarea":8923,"built":4.61,"allowed":10.0,"unbuilt":10424,"ft":1392,"side":"s"}},
{"type":"Feature","geometry":{"type":"Polygon","coordinates":[[[-73.996962,40.759793],[-73.996786,40.760034],[-73.996597,40.759955],[-73.996773,40.759714],[-73.996919,40.759775],[-73.996962,40.759793]]]},"properties":{"bbl":"1010700044","addr":"524 West 42 Street","zone":"C6-4","lm":0,"owner":"Lesaga Holdings-522 W 42 Street, LLC","own":"P","floors":4,"year":1910,"lotarea":5802,"bldgarea":19420,"built":3.35,"allowed":10.0,"unbuilt":38583,"ft":1481,"side":"s"}},
{"type":"Feature","geometry":{"type":"Polygon","coordinates":[[[-73.995926,40.760615],[-73.996102,40.760374],[-73.996152,40.760395],[-73.996395,40.760498],[-73.996574,40.76025],[-73.996811,40.76035],[-73.996632,40.760597],[-73.996457,40.760839],[-73.995926,40.760615]]]},"properties":{"bbl":"1010710042","addr":"520 West 43 Street","zone":"C6-4","lm":0,"owner":"520 West 43rd Street REIT, LLC","own":"","floors":35,"year":1996,"lotarea":24269,"bldgarea":319967,"built":13.18,"allowed":10.0,"unbuilt":0,"ft":1487,"side":"n"}},
{"type":"Feature","geometry":{"type":"Polygon","coordinates":[[[-73.996331,40.760148],[-73.996574,40.76025],[-73.996395,40.760498],[-73.996152,40.760395],[-73.996331,40.760148]]]},"properties":{"bbl":"1010717503","addr":"521 West 42 Street","zone":"C6-4","lm":0,"owner":"Unavailable Owner","own":"","floors":19,"year":2005,"lotarea":7540,"bldgarea":94132,"built":12.48,"allowed":10.0,"unbuilt":0,"ft":1518,"side":"n"}},
{"type":"Feature","geometry":{"type":"Polygon","coordinates":[[[-73.996176,40.759778],[-73.996331,40.759566],[-73.996471,40.759624],[-73.996575,40.759528],[-73.99667,40.759396],[-73.996692,40.759369],[-73.996756,40.759396],[-73.996996,40.759497],[-73.997053,40.759521],[-73.997093,40.759537],[-73.996919,40.759775],[-73.996773,40.759714],[-73.996597,40.759955],[-73.996549,40.759935],[-73.996531,40.759927],[-73.996291,40.759826],[-73.99623,40.759801],[-73.996176,40.759778]]]},"properties":{"bbl":"1010700020","addr":"510 West 42 Street","zone":"C6-4","lm":0,"owner":"West 42nd Street Developers, LLC","own":"","floors":3,"year":1960,"lotarea":24850,"bldgarea":78333,"built":3.15,"allowed":10.0,"unbuilt":170222,"ft":1568,"side":"s"}},
{"type":"Feature","geometry":{"type":"Polygon","coordinates":[[[-73.995587,40.760472],[-73.995762,40.76023],[-73.995941,40.759984],[-73.995992,40.760005],[-73.996148,40.760071],[-73.996248,40.760113],[-73.996311,40.760139],[-73.996331,40.760148],[-73.996152,40.760395],[-73.996102,40.760374],[-73.995926,40.760615],[-73.995903,40.760606],[-73.995807,40.760565],[-73.995706,40.760522],[-73.995587,40.760472]]]},"properties":{"bbl":"1010710023","addr":"515 West 42 Street","zone":"C6-4","lm":0,"owner":"R.Born Assoc.","own":"","floors":7,"year":1962,"lotarea":23425,"bldgarea":122050,"built":5.21,"allowed":10.0,"unbuilt":112206,"ft":1608,"side":"n"}},
{"type":"Feature","geometry":{"type":"Polygon","coordinates":[[[-73.995989,40.759503],[-73.995972,40.759496],[-73.99602,40.75943],[-73.996334,40.759562],[-73.996331,40.759566],[-73.996176,40.759778],[-73.995863,40.759646],[-73.99591,40.759581],[-73.995927,40.759588],[-73.995989,40.759503]]]},"properties":{"bbl":"1010700034","addr":"502 West 42 Street","zone":"C6-4","lm":0,"owner":"Clinton Housing West 42nd Partners, L.P.","own":"","floors":6,"year":2011,"lotarea":8662,"bldgarea":37899,"built":4.38,"allowed":10.0,"unbuilt":48680,"ft":1719,"side":"s"}},
{"type":"Feature","geometry":{"type":"Polygon","coordinates":[[[-73.995491,40.759881],[-73.995539,40.759814],[-73.995941,40.759984],[-73.995762,40.76023],[-73.995686,40.760198],[-73.995816,40.760018],[-73.995491,40.759881]]]},"properties":{"bbl":"1010710029","addr":"501 West 42 Street","zone":"C6-4","lm":0,"owner":"501 507 W 42 St Realty Corp","own":"","floors":2,"year":1960,"lotarea":5000,"bldgarea":10000,"built":2.0,"allowed":10.0,"unbuilt":40000,"ft":1734,"side":"n"}},
{"type":"Feature","geometry":{"type":"Polygon","coordinates":[[[-73.995491,40.759881],[-73.995816,40.760018],[-73.995686,40.760198],[-73.995762,40.76023],[-73.995587,40.760472],[-73.995185,40.760303],[-73.995491,40.759881]]]},"properties":{"bbl":"1010717501","addr":"500 West 43 Street","zone":"C6-4","lm":0,"owner":"Strand Condo","own":"","floors":41,"year":1988,"lotarea":20053,"bldgarea":243309,"built":12.13,"allowed":10.0,"unbuilt":0,"ft":1734,"side":"n"}},
{"type":"Feature","geometry":{"type":"Polygon","coordinates":[[[-73.995888,40.759341],[-73.995981,40.75938],[-73.995963,40.759406],[-73.99602,40.75943],[-73.995972,40.759496],[-73.995989,40.759503],[-73.995927,40.759588],[-73.99591,40.759581],[-73.995863,40.759646],[-73.995712,40.759583],[-73.995888,40.759341]]]},"properties":{"bbl":"1010707501","addr":"500 West 42 Street","zone":"C6-4","lm":0,"owner":"500 West 42nd St Hsg Develpmt Fd Co","own":"","floors":6,"year":2001,"lotarea":4108,"bldgarea":27410,"built":6.67,"allowed":10.0,"unbuilt":13680,"ft":1766,"side":"s"}},
{"type":"Feature","geometry":{"type":"Polygon","coordinates":[[[-73.994136,40.758918],[-73.994311,40.758675],[-73.994994,40.75896],[-73.995111,40.7588],[-73.995688,40.759043],[-73.995698,40.759047],[-73.995403,40.759452],[-73.994837,40.759213],[-73.994765,40.759183],[-73.994456,40.759053],[-73.994377,40.759019],[-73.994306,40.75899],[-73.994221,40.758954],[-73.994136,40.758918]]]},"properties":{"bbl":"1010517502","addr":"560 10 Avenue","zone":"C6-4","lm":0,"owner":"Unavailable Owner","own":"","floors":59,"year":2008,"lotarea":54647,"bldgarea":1003752,"built":18.37,"allowed":10.0,"unbuilt":0,"ft":2131,"side":"s"}},
{"type":"Feature","geometry":{"type":"Polygon","coordinates":[[[-73.9939,40.758818],[-73.994175,40.75844],[-73.994409,40.758539],[-73.994311,40.758675],[-73.994136,40.758918],[-73.9939,40.758818]]]},"properties":{"bbl":"1010510016","addr":"Dyer Avenue","zone":"C6-4","lm":0,"owner":"Trm 42 Associates, LLC","own":"X","floors":0,"year":0,"lotarea":11737,"bldgarea":0,"built":0.0,"allowed":10.0,"unbuilt":117370,"ft":2334,"side":"s"}},
{"type":"Feature","geometry":{"type":"Polygon","coordinates":[[[-73.992344,40.759108],[-73.992701,40.758622],[-73.995238,40.759689],[-73.994882,40.760175],[-73.992344,40.759108]]]},"properties":{"bbl":"1010520001","addr":"576 10 Avenue","zone":"C6-4","lm":0,"owner":"Manhattan Plaza Inc","own":"X","floors":46,"year":1976,"lotarea":160664,"bldgarea":2099504,"built":13.07,"allowed":10.0,"unbuilt":0,"ft":2375,"side":"n"}},
{"type":"Feature","geometry":{"type":"Polygon","coordinates":[[[-73.993663,40.758719],[-73.993838,40.758478],[-73.993686,40.758414],[-73.993685,40.758413],[-73.993786,40.758276],[-73.994175,40.75844],[-73.9939,40.758818],[-73.993663,40.758719]]]},"properties":{"bbl":"1010517501","addr":"420 West 42 Street","zone":"C6-4","lm":0,"owner":"Unavailable Owner","own":"","floors":40,"year":2000,"lotarea":14344,"bldgarea":289281,"built":20.17,"allowed":10.0,"unbuilt":0,"ft":2445,"side":"s"}},
{"type":"Feature","geometry":{"type":"Polygon","coordinates":[[[-73.993663,40.758719],[-73.993511,40.758654],[-73.993686,40.758414],[-73.993838,40.758478],[-73.993663,40.758719]]]},"properties":{"bbl":"1010510041","addr":"416 West 42 Street","zone":"C6-4","lm":0,"owner":"Playwrights Horizons Inc","own":"X","floors":6,"year":2002,"lotarea":4962,"bldgarea":29400,"built":5.93,"allowed":10.0,"unbuilt":20195,"ft":2465,"side":"s"}},
{"type":"Feature","geometry":{"type":"Polygon","coordinates":[[[-73.993511,40.758654],[-73.993429,40.75862],[-73.993604,40.758379],[-73.993685,40.758413],[-73.993686,40.758414],[-73.993511,40.758654]]]},"properties":{"bbl":"1010510040","addr":"414 West 42 Street","zone":"C6-4","lm":0,"owner":"42nd Street Devlpmntcp","own":"","floors":5,"year":1920,"lotarea":2440,"bldgarea":9680,"built":3.97,"allowed":10.0,"unbuilt":14713,"ft":2502,"side":"s"}},
{"type":"Feature","geometry":{"type":"Polygon","coordinates":[[[-73.993266,40.758551],[-73.993441,40.758312],[-73.99337,40.758282],[-73.993403,40.758237],[-73.993471,40.758143],[-73.993786,40.758276],[-73.993685,40.758413],[-73.993604,40.758379],[-73.993429,40.75862],[-73.993266,40.758551]]]},"properties":{"bbl":"1010510029","addr":"420 West 41 Street","zone":"C6-4","lm":0,"owner":"Dyer Avenue Associates, LLC","own":"","floors":5,"year":2000,"lotarea":16024,"bldgarea":33100,"built":2.07,"allowed":10.0,"unbuilt":127070,"ft":2552,"side":"s"}},
{"type":"Feature","geometry":{"type":"Polygon","coordinates":[[[-73.993076,40.758099],[-73.993144,40.758005],[-73.993471,40.758143],[-73.993403,40.758237],[-73.99337,40.758282],[-73.993441,40.758312],[-73.993266,40.758551],[-73.993195,40.758521],[-73.993131,40.758494],[-73.992868,40.758384],[-73.992902,40.758338],[-73.992938,40.758288],[-73.992973,40.758239],[-73.993043,40.758144],[-73.993076,40.758099]]]},"properties":{"bbl":"1010517503","addr":"577 9 Avenue","zone":"C6-4","lm":0,"owner":"Unavailable Owner","own":"","floors":28,"year":2014,"lotarea":17892,"bldgarea":219215,"built":12.25,"allowed":10.0,"unbuilt":0,"ft":2646,"side":"s"}},
{"type":"Feature","geometry":{"type":"Polygon","coordinates":[[[-73.992713,40.758065],[-73.992675,40.758117],[-73.992462,40.758027],[-73.992499,40.757975],[-73.992713,40.758065]]]},"properties":{"bbl":"1010320063","addr":"574 9 Avenue","zone":"C6-4","lm":0,"owner":"9th Ave Bh LLC","own":"","floors":4,"year":1910,"lotarea":1280,"bldgarea":4016,"built":3.14,"allowed":10.0,"unbuilt":8781,"ft":2818,"side":"s"}},
{"type":"Feature","geometry":{"type":"Polygon","coordinates":[[[-73.992428,40.758073],[-73.992462,40.758027],[-73.992675,40.758117],[-73.992642,40.758164],[-73.992428,40.758073]]]},"properties":{"bbl":"1010320162","addr":"576 9 Avenue","zone":"C6-4","lm":0,"owner":"9th Ave Bh LLC","own":"","floors":4,"year":1910,"lotarea":1287,"bldgarea":5173,"built":4.02,"allowed":10.0,"unbuilt":7696,"ft":2831,"side":"s"}},
{"type":"Feature","geometry":{"type":"Polygon","coordinates":[[[-73.992304,40.75815],[-73.99248,40.757909],[-73.992501,40.757917],[-73.992532,40.75793],[-73.992499,40.757975],[-73.992462,40.758027],[-73.992428,40.758073],[-73.992642,40.758164],[-73.99257,40.758262],[-73.992304,40.75815]]]},"properties":{"bbl":"1010320061","addr":"578 9 Avenue","zone":"C6-4","lm":0,"owner":"9th Ave Bh LLC","own":"","floors":4,"year":1988,"lotarea":4251,"bldgarea":13026,"built":3.06,"allowed":10.0,"unbuilt":29502,"ft":2851,"side":"s"}},
{"type":"Feature","geometry":{"type":"Polygon","coordinates":[[[-73.99185,40.75877],[-73.991811,40.758823],[-73.992079,40.758936],[-73.992041,40.758989],[-73.991397,40.758718],[-73.991569,40.758481],[-73.991577,40.758471],[-73.991851,40.758586],[-73.992038,40.75833],[-73.992408,40.758485],[-73.992223,40.758739],[-73.991954,40.758627],[-73.99192,40.758674],[-73.991885,40.758722],[-73.99185,40.75877]]]},"properties":{"bbl":"1010330001","addr":"360 West 43 Street","zone":"C6-2","lm":0,"owner":"42/9 Residential LLC","own":"","floors":23,"year":2002,"lotarea":25707,"bldgarea":249052,"built":9.69,"allowed":6.5,"unbuilt":0,"ft":2881,"side":"n"}},
{"type":"Feature","geometry":{"type":"Polygon","coordinates":[[[-73.991927,40.757991],[-73.992102,40.757749],[-73.992261,40.757816],[-73.99244,40.75757],[-73.992601,40.757638],[-73.992422,40.757884],[-73.99248,40.757909],[-73.992304,40.75815],[-73.991927,40.757991]]]},"properties":{"bbl":"1010327501","addr":"350 West 42 Street","zone":"C6-4","lm":0,"owner":"Unavailable Owner","own":"","floors":60,"year":2004,"lotarea":16590,"bldgarea":508695,"built":30.66,"allowed":10.0,"unbuilt":0,"ft":2932,"side":"s"}},
{"type":"Feature","geometry":{"type":"Polygon","coordinates":[[[-73.992038,40.75833],[-73.991851,40.758586],[-73.991577,40.758471],[-73.991764,40.758214],[-73.992038,40.75833]]]},"properties":{"bbl":"1010330006","addr":"351 West 42 Street","zone":"C6-4","lm":0,"owner":"Holland Hotel Housing Development Fund C Orporation","own":"","floors":20,"year":1929,"lotarea":8030,"bldgarea":107679,"built":13.41,"allowed":10.0,"unbuilt":0,"ft":2943,"side":"n"}},
{"type":"Feature","geometry":{"type":"Polygon","coordinates":[[[-73.992281,40.757503],[-73.992102,40.757749],[-73.991927,40.757991],[-73.991625,40.757863],[-73.99198,40.757376],[-73.992281,40.757503]]]},"properties":{"bbl":"1010320054","addr":"338 West 42 Street","zone":"C6-4","lm":0,"owner":"United States Postal Service","own":"X","floors":4,"year":1951,"lotarea":19113,"bldgarea":72317,"built":3.78,"allowed":10.0,"unbuilt":118883,"ft":3024,"side":"s"}},
{"type":"Feature","geometry":{"type":"Polygon","coordinates":[[[-73.991764,40.758214],[-73.991577,40.758471],[-73.991569,40.758481],[-73.991208,40.758329],[-73.991217,40.758317],[-73.991267,40.758338],[-73.991453,40.758083],[-73.991764,40.758214]]]},"properties":{"bbl":"1010330009","addr":"349 West 42 Street","zone":"C6-4","lm":0,"owner":"42/43 Realty LLC","own":"","floors":41,"year":2003,"lotarea":10459,"bldgarea":230000,"built":21.99,"allowed":10.0,"unbuilt":0,"ft":3049,"side":"n"}},
{"type":"Feature","geometry":{"type":"Polygon","coordinates":[[[-73.990771,40.758454],[-73.990952,40.758206],[-73.991138,40.757951],[-73.991453,40.758083],[-73.991267,40.758338],[-73.991217,40.758317],[-73.991208,40.758329],[-73.991199,40.758341],[-73.991172,40.75833],[-73.991008,40.758554],[-73.990771,40.758454]]]},"properties":{"bbl":"1010330049","addr":"332 West 43 Street","zone":"C6-4","lm":0,"owner":"Rc Chur of the Holy C","own":"X","floors":6,"year":1920,"lotarea":17656,"bldgarea":13947,"built":0.79,"allowed":10.0,"unbuilt":162612,"ft":3140,"side":"n"}},
{"type":"Feature","geometry":{"type":"Polygon","coordinates":[[[-73.991212,40.757689],[-73.991386,40.75745],[-73.991316,40.75742],[-73.991496,40.757172],[-73.99198,40.757376],[-73.991625,40.757863],[-73.991212,40.757689]]]},"properties":{"bbl":"1010320048","addr":"330 West 42 Street","zone":"C6-7","lm":1,"owner":"Deco Towers Associates LLC","own":"","floors":33,"year":1931,"lotarea":27975,"bldgarea":552775,"built":19.76,"allowed":15.0,"unbuilt":0,"ft":3191,"side":"s"}},
{"type":"Feature","geometry":{"type":"Polygon","coordinates":[[[-73.990873,40.758173],[-73.991059,40.757918],[-73.991138,40.757951],[-73.990952,40.758206],[-73.990873,40.758173]]]},"properties":{"bbl":"1010330017","addr":"329 West 42 Street","zone":"C6-4","lm":0,"owner":"Rc Chur of the Holy C","own":"X","floors":4,"year":1920,"lotarea":2500,"bldgarea":5590,"built":2.24,"allowed":10.0,"unbuilt":19400,"ft":3207,"side":"n"}},
{"type":"Feature","geometry":{"type":"Polygon","coordinates":[[[-73.990981,40.757885],[-73.991059,40.757918],[-73.990873,40.758173],[-73.990795,40.75814],[-73.990981,40.757885]]]},"properties":{"bbl":"1010330018","addr":"327 West 42 Street","zone":"C6-4","lm":0,"owner":"Whopper Realty","own":"","floors":5,"year":1910,"lotarea":2500,"bldgarea":10615,"built":4.25,"allowed":10.0,"unbuilt":14375,"ft":3232,"side":"n"}},
{"type":"Feature","geometry":{"type":"Polygon","coordinates":[[[-73.990795,40.75814],[-73.990715,40.758106],[-73.990902,40.757851],[-73.990981,40.757885],[-73.990795,40.75814]]]},"properties":{"bbl":"1010330019","addr":"325 West 42 Street","zone":"C6-4","lm":0,"owner":"321-323-325 West 42nd Street LLC","own":"","floors":5,"year":1920,"lotarea":2510,"bldgarea":8957,"built":3.57,"allowed":10.0,"unbuilt":16139,"ft":3252,"side":"n"}},
{"type":"Feature","geometry":{"type":"Polygon","coordinates":[[[-73.990631,40.758071],[-73.990817,40.757816],[-73.990902,40.757851],[-73.990715,40.758106],[-73.990631,40.758071]]]},"properties":{"bbl":"1010330020","addr":"323 West 42 Street","zone":"C6-4","lm":0,"owner":"321-323-325 West 42nd Street LLC","own":"","floors":5,"year":1920,"lotarea":2510,"bldgarea":9219,"built":3.67,"allowed":10.0,"unbuilt":15888,"ft":3283,"side":"n"}},
{"type":"Feature","geometry":{"type":"Polygon","coordinates":[[[-73.99003,40.757195],[-73.990387,40.756704],[-73.990477,40.756581],[-73.990837,40.756087],[-73.993374,40.757158],[-73.993016,40.75765],[-73.991693,40.757092],[-73.991496,40.757172],[-73.991316,40.75742],[-73.991386,40.75745],[-73.991212,40.757689],[-73.991209,40.757693],[-73.99003,40.757195]]]},"properties":{"bbl":"1010320029","addr":"641 8 Avenue","zone":"C6-7","lm":0,"owner":"Port Authority of NY and NJ","own":"X","floors":6,"year":1950,"lotarea":255000,"bldgarea":1500000,"built":5.88,"allowed":15.0,"unbuilt":2325600,"ft":3303,"side":"s"}},
{"type":"Feature","geometry":{"type":"Polygon","coordinates":[[[-73.990555,40.758039],[-73.990741,40.757784],[-73.990817,40.757816],[-73.990631,40.758071],[-73.990555,40.758039]]]},"properties":{"bbl":"1010330021","addr":"321 West 42 Street","zone":"C6-4","lm":0,"owner":"321-323-325 West 42nd Street LLC","own":"","floors":5,"year":1930,"lotarea":2510,"bldgarea":9203,"built":3.67,"allowed":10.0,"unbuilt":15888,"ft":3308,"side":"n"}},
{"type":"Feature","geometry":{"type":"Polygon","coordinates":[[[-73.990555,40.758039],[-73.990479,40.758007],[-73.990665,40.757752],[-73.990741,40.757784],[-73.990555,40.758039]]]},"properties":{"bbl":"1010330022","addr":"319 West 42 Street","zone":"C6-4","lm":0,"owner":"Jnk-42 LLC","own":"","floors":5,"year":1920,"lotarea":2510,"bldgarea":9203,"built":3.67,"allowed":10.0,"unbuilt":15888,"ft":3327,"side":"n"}},
{"type":"Feature","geometry":{"type":"Polygon","coordinates":[[[-73.990003,40.757806],[-73.990189,40.757551],[-73.990483,40.757675],[-73.990665,40.757752],[-73.990479,40.758007],[-73.990555,40.758039],[-73.990631,40.758071],[-73.99045,40.758319],[-73.990116,40.758179],[-73.9899,40.758088],[-73.990081,40.757839],[-73.990003,40.757806]]]},"properties":{"bbl":"1010337501","addr":"313 West 42Nd Street","zone":"C6-4","lm":0,"owner":"Ardeon Realty Corp","own":"","floors":32,"year":2022,"lotarea":32637,"bldgarea":281959,"built":8.64,"allowed":10.0,"unbuilt":44386,"ft":3402,"side":"n"}},
{"type":"Feature","geometry":{"type":"Polygon","coordinates":[[[-73.989633,40.757731],[-73.989633,40.757731],[-73.989678,40.75767],[-73.989716,40.757618],[-73.989958,40.75772],[-73.990106,40.757517],[-73.990189,40.757551],[-73.990003,40.757806],[-73.989981,40.757836],[-73.989975,40.757834],[-73.989952,40.757865],[-73.989633,40.757731]]]},"properties":{"bbl":"1010337502","addr":"303 West 42Nd Street","zone":"C6-4","lm":0,"owner":"303 West 42nd Street Realty, L.L.C.","own":"","floors":12,"year":1928,"lotarea":6351,"bldgarea":52901,"built":8.33,"allowed":10.0,"unbuilt":10606,"ft":3539,"side":"n"}},
{"type":"Feature","geometry":{"type":"Polygon","coordinates":[[[-73.989958,40.75772],[-73.989716,40.757618],[-73.989864,40.757415],[-73.990106,40.757517],[-73.989958,40.75772]]]},"properties":{"bbl":"1010330029","addr":"661 8 Avenue","zone":"C6-4","lm":0,"owner":"42nd & 8th Holdco LLC","own":"","floors":2,"year":1972,"lotarea":6035,"bldgarea":12905,"built":2.14,"allowed":10.0,"unbuilt":47435,"ft":3548,"side":"n"}},
{"type":"Feature","geometry":{"type":"Polygon","coordinates":[[[-73.989101,40.756484],[-73.989278,40.75624],[-73.989752,40.75644],[-73.990075,40.756576],[-73.990029,40.756638],[-73.989984,40.756701],[-73.98971,40.757079],[-73.989387,40.756943],[-73.98929,40.756902],[-73.989479,40.756642],[-73.989264,40.756552],[-73.989101,40.756484]]]},"properties":{"bbl":"1010137501","addr":"640 8 Avenue","zone":"C6-7","lm":0,"owner":"Unavailable Owner","own":"","floors":40,"year":2007,"lotarea":37854,"bldgarea":789726,"built":20.86,"allowed":15.0,"unbuilt":0,"ft":3810,"side":"s"}},
{"type":"Feature","geometry":{"type":"Polygon","coordinates":[[[-73.989264,40.756552],[-73.989479,40.756642],[-73.98929,40.756902],[-73.989075,40.756811],[-73.989264,40.756552]]]},"properties":{"bbl":"1010130057","addr":"258 West 42 Street","zone":"C6-7","lm":0,"owner":"NYC Economic Development Corporation","own":"C","floors":4,"year":1999,"lotarea":6863,"bldgarea":170744,"built":24.88,"allowed":15.0,"unbuilt":0,"ft":3864,"side":"s"}},
{"type":"Feature","geometry":{"type":"Polygon","coordinates":[[[-73.988823,40.757308],[-73.988357,40.757112],[-73.988109,40.757007],[-73.988296,40.756746],[-73.989559,40.75728],[-73.989372,40.75754],[-73.988823,40.757308]]]},"properties":{"bbl":"1010140001","addr":"660 8 Avenue","zone":"C6-7","lm":0,"owner":"Dta Fee Owner LLC","own":"C","floors":6,"year":1998,"lotarea":40200,"bldgarea":150000,"built":3.73,"allowed":15.0,"unbuilt":453054,"ft":3901,"side":"n"}},
{"type":"Feature","geometry":{"type":"Polygon","coordinates":[[[-73.989278,40.75624],[-73.989101,40.756484],[-73.989264,40.756552],[-73.989075,40.756811],[-73.988129,40.756413],[-73.988494,40.75591],[-73.989278,40.75624]]]},"properties":{"bbl":"1010130012","addr":"234 West 42 Street","zone":"C6-7","lm":0,"owner":"NYC Economic Development Corporation","own":"C","floors":15,"year":1999,"lotarea":54060,"bldgarea":275345,"built":5.09,"allowed":15.0,"unbuilt":535735,"ft":3996,"side":"s"}},
{"type":"Feature","geometry":{"type":"Polygon","coordinates":[[[-73.988061,40.756986],[-73.987874,40.756907],[-73.987891,40.756883],[-73.98806,40.756646],[-73.988296,40.756746],[-73.988109,40.757007],[-73.988061,40.756986]]]},"properties":{"bbl":"1010140017","addr":"229 West 42 Street","zone":"C6-7","lm":0,"owner":"The New 42nd St., Inc.","own":"C","floors":10,"year":1999,"lotarea":7538,"bldgarea":84000,"built":11.14,"allowed":15.0,"unbuilt":29097,"ft":4128,"side":"n"}},
{"type":"Feature","geometry":{"type":"Polygon","coordinates":[[[-73.987728,40.756506],[-73.98806,40.756646],[-73.987891,40.756883],[-73.987849,40.756865],[-73.987832,40.756889],[-73.987542,40.756767],[-73.987728,40.756506]]]},"properties":{"bbl":"1010140020","addr":"215 West 42 Street","zone":"C6-7","lm":0,"owner":"NYC Economic Development Corporation","own":"C","floors":3,"year":1919,"lotarea":10401,"bldgarea":12176,"built":1.17,"allowed":15.0,"unbuilt":143846,"ft":4214,"side":"n"}},
{"type":"Feature","geometry":{"type":"Polygon","coordinates":[[[-73.987182,40.756948],[-73.987365,40.756692],[-73.987482,40.756742],[-73.987668,40.756481],[-73.987728,40.756506],[-73.987542,40.756767],[-73.987832,40.756889],[-73.987849,40.756865],[-73.987891,40.756883],[-73.987874,40.756907],[-73.988061,40.756986],[-73.987878,40.757242],[-73.987182,40.756948]]]},"properties":{"bbl":"1010140039","addr":"214 West 43 Street","zone":"C6-5","lm":0,"owner":"NYC Economic Development Corporation","own":"C","floors":4,"year":1903,"lotarea":24176,"bldgarea":85092,"built":3.52,"allowed":10.0,"unbuilt":156660,"ft":4230,"side":"n"}},
{"type":"Feature","geometry":{"type":"Polygon","coordinates":[[[-73.987877,40.756307],[-73.988062,40.756052],[-73.988237,40.756126],[-73.988417,40.755877],[-73.988494,40.75591],[-73.988129,40.756413],[-73.987877,40.756307]]]},"properties":{"bbl":"1010130042","addr":"221 West 41 Street","zone":"C6-7","lm":0,"owner":"Ys 220w42 Owner LLC","own":"","floors":25,"year":1921,"lotarea":10109,"bldgarea":235300,"built":23.28,"allowed":15.0,"unbuilt":0,"ft":4232,"side":"s"}},
{"type":"Feature","geometry":{"type":"Polygon","coordinates":[[[-73.987809,40.756278],[-73.987993,40.756023],[-73.988062,40.756052],[-73.987877,40.756307],[-73.987809,40.756278]]]},"properties":{"bbl":"1010130041","addr":"218 West 42 Street","zone":"C6-7","lm":0,"owner":"NYC Economic Development Corporation","own":"C","floors":5,"year":1914,"lotarea":2234,"bldgarea":15641,"built":7.0,"allowed":15.0,"unbuilt":17872,"ft":4283,"side":"s"}},
{"type":"Feature","geometry":{"type":"Polygon","coordinates":[[[-73.987809,40.756278],[-73.987737,40.756248],[-73.987922,40.755993],[-73.987993,40.756023],[-73.987809,40.756278]]]},"properties":{"bbl":"1010130040","addr":"216 West 42 Street","zone":"C6-7","lm":0,"owner":"NYC Economic Development Corporation","own":"C","floors":3,"year":1920,"lotarea":2469,"bldgarea":6907,"built":2.8,"allowed":15.0,"unbuilt":30122,"ft":4300,"side":"s"}},
{"type":"Feature","geometry":{"type":"Polygon","coordinates":[[[-73.987659,40.756215],[-73.987844,40.75596],[-73.987761,40.755925],[-73.987941,40.755677],[-73.988417,40.755877],[-73.988237,40.756126],[-73.988062,40.756052],[-73.987993,40.756023],[-73.987922,40.755993],[-73.987737,40.756248],[-73.987659,40.756215]]]},"properties":{"bbl":"1010130039","addr":"214 West 42 Street","zone":"C6-7","lm":1,"owner":"New Amsterdam Development Corporation","own":"C","floors":8,"year":1903,"lotarea":19250,"bldgarea":119905,"built":6.23,"allowed":15.0,"unbuilt":168822,"ft":4306,"side":"s"}},
{"type":"Feature","geometry":{"type":"Polygon","coordinates":[[[-73.987365,40.756692],[-73.987266,40.75665],[-73.987453,40.756389],[-73.987668,40.756481],[-73.987482,40.756742],[-73.987365,40.756692]]]},"properties":{"bbl":"1010140025","addr":"207 West 42 Street","zone":"C6-7","lm":0,"owner":"The New 42nd St., Inc.","own":"C","floors":5,"year":1903,"lotarea":6928,"bldgarea":27738,"built":4.0,"allowed":15.0,"unbuilt":76208,"ft":4323,"side":"n"}},
{"type":"Feature","geometry":{"type":"Polygon","coordinates":[[[-73.987012,40.756203],[-73.987453,40.756389],[-73.987266,40.75665],[-73.987365,40.756692],[-73.987182,40.756948],[-73.986643,40.75672],[-73.987012,40.756203]]]},"properties":{"bbl":"1010140033","addr":"3 Times Square","zone":"C6-7","lm":0,"owner":"NYC Economic Development Corporation","own":"C","floors":32,"year":1999,"lotarea":29630,"bldgarea":855000,"built":28.86,"allowed":15.0,"unbuilt":0,"ft":4410,"side":"n"}},
{"type":"Feature","geometry":{"type":"Polygon","coordinates":[[[-73.987379,40.755733],[-73.987542,40.755509],[-73.987941,40.755677],[-73.987761,40.755925],[-73.987844,40.75596],[-73.987659,40.756215],[-73.987177,40.756012],[-73.987379,40.755733]]]},"properties":{"bbl":"1010130029","addr":"592 7 Avenue","zone":"C6-7","lm":0,"owner":"Rxr 5Ts Owner LLC","own":"C","floors":38,"year":2000,"lotarea":27156,"bldgarea":1100000,"built":40.51,"allowed":15.0,"unbuilt":0,"ft":4419,"side":"s"}},
{"type":"Feature","geometry":{"type":"Polygon","coordinates":[[[-73.986396,40.756404],[-73.986464,40.756173],[-73.986511,40.756014],[-73.9867,40.756097],[-73.986518,40.75635],[-73.98646,40.75643],[-73.986396,40.756404]]]},"properties":{"bbl":"1009950001","addr":"1475 Broadway","zone":"C6-7","lm":0,"owner":"Jamestown Ots, L.P.","own":"","floors":22,"year":1908,"lotarea":3475,"bldgarea":150125,"built":43.2,"allowed":15.0,"unbuilt":0,"ft":4611,"side":"n"}},
{"type":"Feature","geometry":{"type":"Polygon","coordinates":[[[-73.9866,40.75575],[-73.986775,40.755192],[-73.987245,40.755382],[-73.986886,40.755871],[-73.9866,40.75575]]]},"properties":{"bbl":"1009940001","addr":"1459 Broadway","zone":"C6-7","lm":0,"owner":"NYC Department of Citywide Administrative Services","own":"C","floors":48,"year":2002,"lotarea":22448,"bldgarea":1079378,"built":48.08,"allowed":15.0,"unbuilt":0,"ft":4653,"side":"s"}},
{"type":"Feature","geometry":{"type":"Polygon","coordinates":[[[-73.985248,40.75612],[-73.985603,40.755627],[-73.985947,40.755771],[-73.986199,40.755878],[-73.986157,40.756021],[-73.98603,40.75645],[-73.985248,40.75612]]]},"properties":{"bbl":"1009950005","addr":"1472 Broadway","zone":"C6-7","lm":0,"owner":"NYC Economic Development Corporation","own":"C","floors":51,"year":1998,"lotarea":45800,"bldgarea":1642675,"built":35.87,"allowed":15.0,"unbuilt":0,"ft":4833,"side":"n"}},
{"type":"Feature","geometry":{"type":"Polygon","coordinates":[[[-73.985688,40.755366],[-73.985864,40.755127],[-73.985865,40.755127],[-73.986046,40.75488],[-73.986098,40.754902],[-73.985977,40.755067],[-73.986082,40.75511],[-73.986021,40.755193],[-73.986373,40.75534],[-73.986285,40.755617],[-73.985688,40.755366]]]},"properties":{"bbl":"1009947502","addr":"1462 Broadway","zone":"C6-7","lm":1,"owner":"Unavailable Owner","own":"","floors":16,"year":1907,"lotarea":19800,"bldgarea":282879,"built":14.29,"allowed":15.0,"unbuilt":14058,"ft":4920,"side":"s"}},
{"type":"Feature","geometry":{"type":"Polygon","coordinates":[[[-73.985444,40.755263],[-73.985619,40.755024],[-73.985699,40.755058],[-73.985686,40.755076],[-73.985771,40.755112],[-73.985784,40.755093],[-73.985786,40.755094],[-73.985864,40.755127],[-73.985688,40.755366],[-73.985609,40.755333],[-73.985524,40.755297],[-73.985444,40.755263]]]},"properties":{"bbl":"1009947503","addr":"136 West 42 Street","zone":"C6-7","lm":0,"owner":"Unavailable Owner","own":"","floors":37,"year":2012,"lotarea":7173,"bldgarea":152686,"built":21.29,"allowed":15.0,"unbuilt":0,"ft":5006,"side":"s"}},
{"type":"Feature","geometry":{"type":"Polygon","coordinates":[[[-73.985298,40.755202],[-73.985654,40.754715],[-73.985967,40.754847],[-73.985786,40.755094],[-73.985784,40.755093],[-73.985771,40.755112],[-73.985686,40.755076],[-73.985699,40.755058],[-73.985619,40.755024],[-73.985444,40.755263],[-73.985298,40.755202]]]},"properties":{"bbl":"1009940045","addr":"130 West 42 Street","zone":"C6-7","lm":1,"owner":"Ryan L.L.C.","own":"","floors":29,"year":1918,"lotarea":14246,"bldgarea":217855,"built":15.29,"allowed":15.0,"unbuilt":0,"ft":5031,"side":"s"}},
{"type":"Feature","geometry":{"type":"Polygon","coordinates":[[[-73.983826,40.755521],[-73.98418,40.755027],[-73.985603,40.755627],[-73.985248,40.75612],[-73.983826,40.755521]]]},"properties":{"bbl":"1009950033","addr":"1111 Avenue Of The Amer","zone":"C6-6","lm":1,"owner":"One Bryant Park","own":"X","floors":55,"year":2005,"lotarea":87863,"bldgarea":2245112,"built":25.55,"allowed":15.0,"unbuilt":0,"ft":5208,"side":"n"}},
{"type":"Feature","geometry":{"type":"Polygon","coordinates":[[[-73.984361,40.754808],[-73.984716,40.754322],[-73.985654,40.754715],[-73.985298,40.755202],[-73.985147,40.755138],[-73.985072,40.755107],[-73.984361,40.754808]]]},"properties":{"bbl":"1009947501","addr":"1095 Avenue Of The Amer","zone":"C6-6","lm":0,"owner":"1095 Ave of the Americas Condo","own":"","floors":41,"year":1972,"lotarea":56781,"bldgarea":1041794,"built":18.35,"allowed":15.0,"unbuilt":0,"ft":5232,"side":"s"}},
{"type":"Feature","geometry":{"type":"Polygon","coordinates":[[[-73.983884,40.75488],[-73.983691,40.755145],[-73.98301,40.754858],[-73.983203,40.754593],[-73.983884,40.75488]]]},"properties":{"bbl":"1012580001","addr":"47 West 42 Street","zone":"C6-6","lm":0,"owner":"1100 Ave. of the Americas Assocs.","own":"","floors":15,"year":1906,"lotarea":20887,"bldgarea":338886,"built":16.22,"allowed":15.0,"unbuilt":0,"ft":5572,"side":"n"}},
{"type":"Feature","geometry":{"type":"Polygon","coordinates":[[[-73.982113,40.754804],[-73.982487,40.754292],[-73.983203,40.754593],[-73.98301,40.754858],[-73.983691,40.755145],[-73.98351,40.755393],[-73.982113,40.754804]]]},"properties":{"bbl":"1012580009","addr":"1114 Avenue Of The Amer","zone":"C6-6","lm":0,"owner":"1114 6th Avenue Owner LLC","own":"","floors":47,"year":1971,"lotarea":67875,"bldgarea":1517497,"built":22.36,"allowed":15.0,"unbuilt":0,"ft":5737,"side":"n"}},
{"type":"Feature","geometry":{"type":"Polygon","coordinates":[[[-73.982636,40.754076],[-73.983427,40.752989],[-73.984823,40.753576],[-73.984031,40.754663],[-73.982636,40.754076]]]},"properties":{"bbl":"1012570002","addr":"1060 Avenue Of The Amer","zone":"PARK","lm":0,"owner":"NYC Department of Parks and Recreation","own":"C","floors":2,"year":1920,"lotarea":199290,"bldgarea":116219,"built":0.58,"allowed":0.0,"unbuilt":0,"ft":5754,"side":"s"}},
{"type":"Feature","geometry":{"type":"Polygon","coordinates":[[[-73.981868,40.7547],[-73.982242,40.754188],[-73.982487,40.754292],[-73.982113,40.754804],[-73.981868,40.7547]]]},"properties":{"bbl":"1012580018","addr":"29 West 42 Street","zone":"C6-6","lm":0,"owner":"Dormitory Authority of the State of New York","own":"X","floors":17,"year":1912,"lotarea":15666,"bldgarea":265200,"built":16.93,"allowed":15.0,"unbuilt":0,"ft":5974,"side":"n"}},
{"type":"Feature","geometry":{"type":"Polygon","coordinates":[[[-73.981391,40.754499],[-73.981577,40.754244],[-73.981446,40.754189],[-73.981634,40.753932],[-73.982242,40.754188],[-73.981868,40.7547],[-73.981391,40.754499]]]},"properties":{"bbl":"1012580021","addr":"11 West 42 Street","zone":"C6-6","lm":0,"owner":"11 West 42 Realty Investors, LLC","own":"","floors":33,"year":1926,"lotarea":34300,"bldgarea":949976,"built":27.7,"allowed":15.0,"unbuilt":0,"ft":6125,"side":"n"}},
{"type":"Feature","geometry":{"type":"Polygon","coordinates":[[[-73.981108,40.753434],[-73.981899,40.752347],[-73.983427,40.752989],[-73.982636,40.754076],[-73.981108,40.753434]]]},"properties":{"bbl":"1012570001","addr":"476 5 Avenue","zone":"C5-3","lm":1,"owner":"New York Public Library","own":"C","floors":4,"year":1911,"lotarea":219250,"bldgarea":284249,"built":1.3,"allowed":15.0,"unbuilt":3003725,"ft":6220,"side":"s"}},
{"type":"Feature","geometry":{"type":"Polygon","coordinates":[[[-73.980967,40.753651],[-73.981634,40.753932],[-73.981446,40.754189],[-73.981184,40.754079],[-73.980779,40.753908],[-73.980967,40.753651]]]},"properties":{"bbl":"1012580034","addr":"500 5 Avenue","zone":"C5-3","lm":1,"owner":"500 Fifth Avenue New York LLC","own":"","floors":58,"year":1931,"lotarea":20920,"bldgarea":659122,"built":31.51,"allowed":15.0,"unbuilt":0,"ft":6317,"side":"n"}},
{"type":"Feature","geometry":{"type":"Polygon","coordinates":[[[-73.980641,40.752998],[-73.980966,40.753135],[-73.980825,40.753329],[-73.980501,40.753191],[-73.980641,40.752998]]]},"properties":{"bbl":"1012760069","addr":"501 5 Avenue","zone":"C5-3","lm":0,"owner":"501 Fifth Avenue Co","own":"","floors":21,"year":1917,"lotarea":7325,"bldgarea":132961,"built":18.15,"allowed":15.0,"unbuilt":0,"ft":6559,"side":"s"}},
{"type":"Feature","geometry":{"type":"Polygon","coordinates":[[[-73.980425,40.753159],[-73.98061,40.752905],[-73.980678,40.752933],[-73.980748,40.752837],[-73.980907,40.752904],[-73.980882,40.75294],[-73.981055,40.753013],[-73.980966,40.753135],[-73.980641,40.752998],[-73.980501,40.753191],[-73.980425,40.753159]]]},"properties":{"bbl":"1012760004","addr":"487 5 Avenue","zone":"C5-3","lm":0,"owner":"5th Avenue LLC C/O El","own":"","floors":33,"year":1971,"lotarea":7947,"bldgarea":163763,"built":20.61,"allowed":15.0,"unbuilt":0,"ft":6578,"side":"s"}},
{"type":"Feature","geometry":{"type":"Polygon","coordinates":[[[-73.980075,40.753615],[-73.980047,40.753603],[-73.980224,40.75336],[-73.980671,40.753549],[-73.980494,40.753792],[-73.980075,40.753615]]]},"properties":{"bbl":"1012770002","addr":"505 5 Avenue","zone":"C5-3","lm":0,"owner":"Fifth at 42nd LLC C/O","own":"","floors":28,"year":2004,"lotarea":13356,"bldgarea":251043,"built":18.8,"allowed":15.0,"unbuilt":0,"ft":6594,"side":"n"}},
{"type":"Feature","geometry":{"type":"Polygon","coordinates":[[[-73.980281,40.753098],[-73.980466,40.752843],[-73.980638,40.752607],[-73.981182,40.752838],[-73.981055,40.753013],[-73.980882,40.75294],[-73.980907,40.752904],[-73.980748,40.752837],[-73.980678,40.752933],[-73.98061,40.752905],[-73.980425,40.753159],[-73.980281,40.753098]]]},"properties":{"bbl":"1012760001","addr":"479 5 Avenue","zone":"C5-3","lm":0,"owner":"Tak Hospitality, LLC","own":"","floors":14,"year":1914,"lotarea":17550,"bldgarea":190357,"built":10.85,"allowed":15.0,"unbuilt":72832,"ft":6600,"side":"s"}},
{"type":"Feature","geometry":{"type":"Polygon","coordinates":[[[-73.979983,40.753691],[-73.979909,40.75366],[-73.979973,40.753572],[-73.979924,40.753551],[-73.980101,40.753308],[-73.980224,40.75336],[-73.980047,40.753603],[-73.979983,40.753691]]]},"properties":{"bbl":"1012770006","addr":"1 East 42 Street","zone":"C5-3","lm":0,"owner":"The Taipel Economic & Cultural, NY","own":"X","floors":15,"year":1927,"lotarea":4915,"bldgarea":62387,"built":12.69,"allowed":15.0,"unbuilt":11354,"ft":6655,"side":"n"}},
{"type":"Feature","geometry":{"type":"Polygon","coordinates":[[[-73.980217,40.753071],[-73.980402,40.752817],[-73.980466,40.752843],[-73.980281,40.753098],[-73.980217,40.753071]]]},"properties":{"bbl":"1012760066","addr":"18 East 42 Street","zone":"C5-3","lm":0,"owner":"204 Mcdonald' Corporation","own":"","floors":6,"year":1939,"lotarea":2198,"bldgarea":11938,"built":5.43,"allowed":15.0,"unbuilt":21035,"ft":6685,"side":"s"}},
{"type":"Feature","geometry":{"type":"Polygon","coordinates":[[[-73.980217,40.753071],[-73.980143,40.753039],[-73.980327,40.752785],[-73.980402,40.752817],[-73.980217,40.753071]]]},"properties":{"bbl":"1012760065","addr":"20 East 42 Street","zone":"C5-3","lm":0,"owner":"2042 Associates","own":"","floors":6,"year":1924,"lotarea":2198,"bldgarea":11938,"built":5.43,"allowed":15.0,"unbuilt":21035,"ft":6703,"side":"s"}},
{"type":"Feature","geometry":{"type":"Polygon","coordinates":[[[-73.979484,40.753691],[-73.979842,40.753198],[-73.980101,40.753308],[-73.979924,40.753551],[-73.979973,40.753572],[-73.979909,40.75366],[-73.979792,40.753821],[-73.979484,40.753691]]]},"properties":{"bbl":"1012770008","addr":"5 East 42 Street","zone":"C5-2.5","lm":0,"owner":"East 43rd NYC LLC","own":"","floors":27,"year":1968,"lotarea":17975,"bldgarea":304525,"built":16.94,"allowed":12.0,"unbuilt":0,"ft":6704,"side":"n"}},
{"type":"Feature","geometry":{"type":"Polygon","coordinates":[[[-73.979835,40.752267],[-73.980638,40.752607],[-73.980466,40.752843],[-73.980402,40.752817],[-73.980327,40.752785],[-73.980143,40.753039],[-73.979932,40.75295],[-73.979861,40.75292],[-73.979479,40.752757],[-73.979835,40.752267]]]},"properties":{"bbl":"1012760058","addr":"300 Madison Avenue","zone":"C5-3","lm":0,"owner":"Bfp 300 Madison II Ll","own":"","floors":36,"year":2002,"lotarea":45839,"bldgarea":1142417,"built":24.92,"allowed":15.0,"unbuilt":0,"ft":6785,"side":"s"}},
{"type":"Feature","geometry":{"type":"Polygon","coordinates":[[[-73.979842,40.753198],[-73.979484,40.753691],[-73.978963,40.753471],[-73.979322,40.752978],[-73.979842,40.753198]]]},"properties":{"bbl":"1012770014","addr":"330 Madison Avenue","zone":"C5-3","lm":0,"owner":"330 Madison Associates LLC","own":"","floors":40,"year":1965,"lotarea":33137,"bldgarea":733001,"built":22.12,"allowed":15.0,"unbuilt":0,"ft":6828,"side":"n"}},
{"type":"Feature","geometry":{"type":"Polygon","coordinates":[[[-73.978871,40.7525],[-73.979011,40.752308],[-73.979069,40.752333],[-73.979112,40.752273],[-73.979442,40.752413],[-73.97926,40.752665],[-73.978871,40.7525]]]},"properties":{"bbl":"1012760051","addr":"50 East 42 Street","zone":"C5-3","lm":0,"owner":"Fifty East Forty Etc.","own":"","floors":27,"year":1917,"lotarea":11250,"bldgarea":138883,"built":12.35,"allowed":15.0,"unbuilt":29813,"ft":7080,"side":"s"}},
{"type":"Feature","geometry":{"type":"Polygon","coordinates":[[[-73.978301,40.752258],[-73.978658,40.751767],[-73.979224,40.752007],[-73.979132,40.752135],[-73.979194,40.752161],[-73.979199,40.752154],[-73.979529,40.752294],[-73.979442,40.752413],[-73.979112,40.752273],[-73.979069,40.752333],[-73.979011,40.752308],[-73.978871,40.7525],[-73.978301,40.752258]]]},"properties":{"bbl":"1012760042","addr":"60 East 42 Street","zone":"C5-3","lm":0,"owner":"Esrt One Grand Central Place, L.L.C.","own":"","floors":55,"year":1929,"lotarea":42050,"bldgarea":1150564,"built":27.36,"allowed":15.0,"unbuilt":0,"ft":7138,"side":"s"}},
{"type":"Feature","geometry":{"type":"Polygon","coordinates":[[[-73.978018,40.75307],[-73.978103,40.752955],[-73.97838,40.752579],[-73.978609,40.752676],[-73.979091,40.75288],[-73.978859,40.753195],[-73.978729,40.753371],[-73.978396,40.75323],[-73.978269,40.753176],[-73.978134,40.753119],[-73.978019,40.75307],[-73.978018,40.75307]]]},"properties":{"bbl":"1012770027","addr":"51 East 42 Street","zone":"C5-3","lm":0,"owner":"One Vanderbilt Owner LLC","own":"","floors":60,"year":2017,"lotarea":44048,"bldgarea":1678135,"built":38.1,"allowed":15.0,"unbuilt":0,"ft":7141,"side":"n"}},
{"type":"Feature","geometry":{"type":"Polygon","coordinates":[[[-73.977952,40.75211],[-73.97812,40.751879],[-73.978309,40.751619],[-73.978658,40.751767],[-73.978301,40.752258],[-73.977952,40.75211]]]},"properties":{"bbl":"1012760033","addr":"118 Park Avenue","zone":"C5-3","lm":0,"owner":"120 Park Avenue Associates LLC","own":"","floors":26,"year":1981,"lotarea":20737,"bldgarea":600000,"built":28.93,"allowed":15.0,"unbuilt":0,"ft":7371,"side":"s"}},
{"type":"Feature","geometry":{"type":"Polygon","coordinates":[[[-73.978042,40.751523],[-73.978053,40.751522],[-73.978063,40.751523],[-73.978076,40.751526],[-73.978127,40.751547],[-73.97814,40.751556],[-73.978148,40.751568],[-73.978059,40.75169],[-73.978072,40.751695],[-73.977886,40.751947],[-73.977874,40.751942],[-73.977819,40.752017],[-73.977798,40.752008],[-73.977787,40.752012],[-73.977779,40.752012],[-73.977772,40.752012],[-73.977766,40.75201],[-73.977759,40.752007],[-73.977755,40.752004],[-73.977751,40.752001],[-73.977747,40.751996],[-73.977743,40.75199],[-73.977739,40.751984],[-73.977712,40.751973],[-73.977767,40.751898],[-73.977755,40.751893],[-73.97794,40.751641],[-73.977952,40.751646],[-73.978042,40.751523]]]},"properties":{"bbl":"1012760999","addr":"90 East 42 Street","zone":"C5-3","lm":1,"owner":"NYC Department of Transportation","own":"C","floors":1,"year":1919,"lotarea":7650,"bldgarea":7650,"built":1.0,"allowed":15.0,"unbuilt":107100,"ft":7474,"side":"s"}},
{"type":"Feature","geometry":{"type":"Polygon","coordinates":[[[-73.976359,40.752811],[-73.976514,40.752596],[-73.976591,40.75249],[-73.976604,40.752471],[-73.97662,40.75245],[-73.976643,40.752418],[-73.976691,40.75235],[-73.976721,40.752309],[-73.976844,40.75214],[-73.976966,40.75197],[-73.97702,40.751992],[-73.978199,40.752489],[-73.977751,40.753119],[-73.977598,40.753333],[-73.977472,40.75328],[-73.976489,40.752866],[-73.976404,40.75283],[-73.976359,40.752811]]]},"properties":{"bbl":"1012800001","addr":"89 East 42Nd Street","zone":"C5-3","lm":1,"owner":"Metropolitan Transportation Authority","own":"X","floors":0,"year":0,"lotarea":134203,"bldgarea":0,"built":0.0,"allowed":15.0,"unbuilt":2013045,"ft":7588,"side":"n"}},
{"type":"Feature","geometry":{"type":"Polygon","coordinates":[[[-73.977115,40.751773],[-73.97722,40.751629],[-73.977271,40.751559],[-73.977483,40.751269],[-73.977851,40.751424],[-73.977913,40.75145],[-73.977658,40.751799],[-73.977545,40.751954],[-73.977429,40.751905],[-73.977115,40.751773]]]},"properties":{"bbl":"1012960001","addr":"125 Park Avenue","zone":"C5-3","lm":1,"owner":"125 Park Owner LLC","own":"","floors":24,"year":1923,"lotarea":24786,"bldgarea":520416,"built":21.0,"allowed":15.0,"unbuilt":0,"ft":7609,"side":"s"}},
{"type":"Feature","geometry":{"type":"Polygon","coordinates":[[[-73.976632,40.751569],[-73.97682,40.751311],[-73.976981,40.751378],[-73.97716,40.751132],[-73.977483,40.751269],[-73.977271,40.751559],[-73.97722,40.751629],[-73.977115,40.751773],[-73.977107,40.751769],[-73.976933,40.751696],[-73.976845,40.751659],[-73.976749,40.751618],[-73.976632,40.751569]]]},"properties":{"bbl":"1012967501","addr":"110 East 42 Street","zone":"C5-3","lm":1,"owner":"125 Park Owner LLC","own":"","floors":18,"year":1921,"lotarea":25613,"bldgarea":240827,"built":9.4,"allowed":15.0,"unbuilt":143433,"ft":7742,"side":"s"}},
{"type":"Feature","geometry":{"type":"Polygon","coordinates":[[[-73.976338,40.752384],[-73.976335,40.752382],[-73.976019,40.752249],[-73.975978,40.752232],[-73.975753,40.752137],[-73.975708,40.752118],[-73.975746,40.752066],[-73.97578,40.752019],[-73.975909,40.75184],[-73.975931,40.75181],[-73.975957,40.751774],[-73.976084,40.751598],[-73.976363,40.751715],[-73.976811,40.751904],[-73.976966,40.75197],[-73.976844,40.75214],[-73.976721,40.752309],[-73.976691,40.75235],[-73.976643,40.752418],[-73.97662,40.75245],[-73.976604,40.752471],[-73.976591,40.75249],[-73.976338,40.752384]]]},"properties":{"bbl":"1012800030","addr":"109 East 42 Street","zone":"C5-3","lm":0,"owner":"Metropolitan Transportation Authority","own":"M","floors":26,"year":1919,"lotarea":57282,"bldgarea":1028194,"built":17.95,"allowed":15.0,"unbuilt":0,"ft":7808,"side":"n"}},
{"type":"Feature","geometry":{"type":"Polygon","coordinates":[[[-73.97716,40.751132],[-73.976981,40.751378],[-73.97682,40.751311],[-73.976632,40.751569],[-73.976229,40.751398],[-73.976597,40.750895],[-73.97716,40.751132]]]},"properties":{"bbl":"1012960014","addr":"374 Lexington Avenue","zone":"C5-3","lm":1,"owner":"C B Land Associates","own":"","floors":52,"year":1929,"lotarea":29625,"bldgarea":862071,"built":29.1,"allowed":15.0,"unbuilt":0,"ft":7837,"side":"s"}},
{"type":"Feature","geometry":{"type":"Polygon","coordinates":[[[-73.974849,40.751739],[-73.974903,40.751664],[-73.974921,40.751651],[-73.974931,40.751643],[-73.974986,40.7516],[-73.975023,40.751571],[-73.975024,40.751569],[-73.975067,40.751535],[-73.975095,40.751513],[-73.975119,40.751493],[-73.975139,40.751477],[-73.975344,40.75129],[-73.975861,40.751509],[-73.975494,40.752012],[-73.974849,40.751739]]]},"properties":{"bbl":"1012970023","addr":"395 Lexington Avenue","zone":"C5-3","lm":1,"owner":"405 Lexington, L.L.C.","own":"X","floors":77,"year":1930,"lotarea":37525,"bldgarea":1035307,"built":27.59,"allowed":15.0,"unbuilt":0,"ft":8188,"side":"n"}},
{"type":"Feature","geometry":{"type":"Polygon","coordinates":[[[-73.975026,40.751401],[-73.975162,40.751213],[-73.975344,40.75129],[-73.975139,40.751477],[-73.975029,40.751431],[-73.975017,40.751412],[-73.975026,40.751401]]]},"properties":{"bbl":"1012970027","addr":"145 East 42 Street","zone":"C5-3","lm":0,"owner":"R&S Trylons LLC","own":"","floors":2,"year":1935,"lotarea":3724,"bldgarea":10721,"built":2.88,"allowed":15.0,"unbuilt":45135,"ft":8228,"side":"n"}},
{"type":"Feature","geometry":{"type":"Polygon","coordinates":[[[-73.974154,40.751446],[-73.974521,40.750942],[-73.974847,40.75108],[-73.974759,40.7512],[-73.974818,40.751225],[-73.974719,40.751361],[-73.974896,40.751436],[-73.974946,40.751367],[-73.975026,40.751401],[-73.975017,40.751412],[-73.975029,40.751431],[-73.975139,40.751477],[-73.975119,40.751493],[-73.975095,40.751513],[-73.975067,40.751535],[-73.975024,40.751569],[-73.975023,40.751571],[-73.974986,40.7516],[-73.974931,40.751643],[-73.974921,40.751651],[-73.974903,40.751664],[-73.974849,40.751739],[-73.974154,40.751446]]]},"properties":{"bbl":"1012970033","addr":"666 3 Avenue","zone":"C5-3","lm":0,"owner":"Chrysler East Building, L.L.C.","own":"","floors":32,"year":1952,"lotarea":34771,"bldgarea":666376,"built":19.16,"allowed":15.0,"unbuilt":0,"ft":8273,"side":"n"}},
{"type":"Feature","geometry":{"type":"Polygon","coordinates":[[[-73.975028,40.750232],[-73.976376,40.750801],[-73.976008,40.751305],[-73.975121,40.750931],[-73.975094,40.750919],[-73.97466,40.750736],[-73.975028,40.750232]]]},"properties":{"bbl":"1012967502","addr":"150 East 42 Street","zone":"C5-3","lm":1,"owner":"150 Hg Venture LLC","own":"","floors":42,"year":1955,"lotarea":82950,"bldgarea":1241644,"built":14.97,"allowed":15.0,"unbuilt":2488,"ft":8286,"side":"s"}},
{"type":"Feature","geometry":{"type":"Polygon","coordinates":[[[-73.974759,40.7512],[-73.974847,40.75108],[-73.975162,40.751213],[-73.975026,40.751401],[-73.974946,40.751367],[-73.974896,40.751436],[-73.974719,40.751361],[-73.974818,40.751225],[-73.974759,40.7512]]]},"properties":{"bbl":"1012970031","addr":"155 East 42 Street","zone":"C5-3","lm":0,"owner":"R&S Trylons LLC","own":"","floors":2,"year":1925,"lotarea":8320,"bldgarea":21910,"built":2.63,"allowed":15.0,"unbuilt":102918,"ft":8299,"side":"n"}},
{"type":"Feature","geometry":{"type":"Polygon","coordinates":[[[-73.973518,40.751173],[-73.97369,40.750937],[-73.97377,40.750971],[-73.973955,40.750719],[-73.974211,40.750827],[-73.973893,40.751263],[-73.973855,40.751315],[-73.973603,40.751209],[-73.973518,40.751173]]]},"properties":{"bbl":"1013160001","addr":"675 3 Avenue","zone":"C5-3","lm":0,"owner":"675 Third Owner LLC","own":"","floors":31,"year":1966,"lotarea":18578,"bldgarea":289356,"built":15.58,"allowed":15.0,"unbuilt":0,"ft":8603,"side":"n"}},
{"type":"Feature","geometry":{"type":"Polygon","coordinates":[[[-73.974232,40.750337],[-73.974184,40.750262],[-73.974394,40.749971],[-73.974742,40.750117],[-73.974387,40.750609],[-73.974118,40.750495],[-73.974232,40.750337]]]},"properties":{"bbl":"1013150001","addr":"655 3 Avenue","zone":"C5-3","lm":0,"owner":"Dolp 655 Properties II LLC","own":"","floors":28,"year":1958,"lotarea":18993,"bldgarea":380000,"built":20.01,"allowed":15.0,"unbuilt":0,"ft":8605,"side":"s"}},
{"type":"Feature","geometry":{"type":"Polygon","coordinates":[[[-73.974118,40.750495],[-73.974039,40.750462],[-73.974184,40.750262],[-73.974232,40.750337],[-73.974118,40.750495]]]},"properties":{"bbl":"1013150048","addr":"202 East 42 Street","zone":"C5-3","lm":0,"owner":"Dolp 655 Properties","own":"","floors":5,"year":1946,"lotarea":1745,"bldgarea":7855,"built":4.5,"allowed":15.0,"unbuilt":18322,"ft":8632,"side":"s"}},
{"type":"Feature","geometry":{"type":"Polygon","coordinates":[[[-73.973206,40.751042],[-73.973378,40.750806],[-73.973218,40.750739],[-73.973402,40.750486],[-73.973955,40.750719],[-73.97377,40.750971],[-73.97369,40.750937],[-73.973518,40.751173],[-73.973206,40.751042]]]},"properties":{"bbl":"1013167501","addr":"205 East 42 Street","zone":"C5-3","lm":0,"owner":"Unavailable Owner","own":"","floors":21,"year":1929,"lotarea":27615,"bldgarea":403099,"built":14.6,"allowed":15.0,"unbuilt":11046,"ft":8711,"side":"n"}},
{"type":"Feature","geometry":{"type":"Polygon","coordinates":[[[-73.973566,40.750262],[-73.97392,40.749771],[-73.974394,40.749971],[-73.974184,40.750262],[-73.974039,40.750462],[-73.973566,40.750262]]]},"properties":{"bbl":"1013150044","addr":"214 East 42 Street","zone":"C5-3","lm":0,"owner":"Dk Wgc Fee Owner LLC","own":"","floors":40,"year":1980,"lotarea":29625,"bldgarea":517158,"built":17.46,"allowed":15.0,"unbuilt":0,"ft":8720,"side":"s"}},
{"type":"Feature","geometry":{"type":"Polygon","coordinates":[[[-73.973218,40.750739],[-73.973378,40.750806],[-73.973206,40.751042],[-73.972634,40.750801],[-73.97299,40.750313],[-73.973402,40.750486],[-73.973218,40.750739]]]},"properties":{"bbl":"1013160012","addr":"219 East 42 Street","zone":"C5-3","lm":0,"owner":"219 Owner LLC","own":"","floors":9,"year":1905,"lotarea":31130,"bldgarea":519826,"built":16.7,"allowed":15.0,"unbuilt":0,"ft":8821,"side":"n"}},
{"type":"Feature","geometry":{"type":"Polygon","coordinates":[[[-73.97244,40.749787],[-73.972797,40.749299],[-73.973848,40.749741],[-73.97392,40.749771],[-73.973566,40.750262],[-73.973494,40.750232],[-73.97244,40.749787]]]},"properties":{"bbl":"1013157501","addr":"220 East 42 Street","zone":"C5-2","lm":1,"owner":"Unavailable Owner","own":"","floors":37,"year":1928,"lotarea":70112,"bldgarea":907907,"built":12.95,"allowed":10.0,"unbuilt":0,"ft":8955,"side":"s"}},
{"type":"Feature","geometry":{"type":"Polygon","coordinates":[[[-73.972169,40.750605],[-73.972343,40.75037],[-73.972093,40.750265],[-73.972278,40.750014],[-73.97299,40.750313],[-73.972634,40.750801],[-73.972169,40.750605]]]},"properties":{"bbl":"1013160023","addr":"235 East 42 Street","zone":"C5-3","lm":0,"owner":"235 Fee Owner LLC","own":"","floors":37,"year":1960,"lotarea":37657,"bldgarea":728739,"built":19.35,"allowed":15.0,"unbuilt":0,"ft":9054,"side":"n"}},
{"type":"Feature","geometry":{"type":"Polygon","coordinates":[[[-73.972267,40.749077],[-73.972485,40.74917],[-73.972132,40.749655],[-73.971911,40.749562],[-73.97222,40.749136],[-73.972223,40.749137],[-73.972267,40.749077]]]},"properties":{"bbl":"1013347501","addr":"300 East 42Nd Street","zone":"C5-2","lm":0,"owner":"300 East Holdings LLC","own":"","floors":17,"year":1964,"lotarea":13800,"bldgarea":187963,"built":13.62,"allowed":10.0,"unbuilt":0,"ft":9299,"side":"s"}},
{"type":"Feature","geometry":{"type":"Polygon","coordinates":[[[-73.971355,40.750262],[-73.971535,40.750014],[-73.971537,40.750015],[-73.971726,40.749755],[-73.971986,40.749865],[-73.971616,40.750372],[-73.971355,40.750262]]]},"properties":{"bbl":"1013357501","addr":"800 2 Avenue","zone":"C5-2","lm":0,"owner":"800 Second Ave Condominium Assoc","own":"","floors":18,"year":1957,"lotarea":16225,"bldgarea":227872,"built":14.04,"allowed":10.0,"unbuilt":0,"ft":9306,"side":"n"}},
{"type":"Feature","geometry":{"type":"Polygon","coordinates":[[[-73.97181,40.749518],[-73.971986,40.749275],[-73.971827,40.749207],[-73.972003,40.748965],[-73.972267,40.749077],[-73.972223,40.749137],[-73.97222,40.749136],[-73.971911,40.749562],[-73.97181,40.749518]]]},"properties":{"bbl":"1013340005","addr":"304 East 42 Street","zone":"C5-2","lm":0,"owner":"Tudor Equity Associa","own":"","floors":23,"year":1932,"lotarea":10900,"bldgarea":141758,"built":13.01,"allowed":10.0,"unbuilt":0,"ft":9348,"side":"s"}},
{"type":"Feature","geometry":{"type":"Polygon","coordinates":[[[-73.971986,40.749275],[-73.97181,40.749518],[-73.971581,40.749421],[-73.971758,40.749178],[-73.971827,40.749207],[-73.971986,40.749275]]]},"properties":{"bbl":"1013340046","addr":"310 East 42 Street","zone":"R10","lm":0,"owner":"Church of the Convent","own":"X","floors":3,"year":1928,"lotarea":7400,"bldgarea":18766,"built":2.54,"allowed":10.0,"unbuilt":55204,"ft":9383,"side":"s"}},
{"type":"Feature","geometry":{"type":"Polygon","coordinates":[[[-73.970715,40.749992],[-73.970897,40.749742],[-73.971059,40.749521],[-73.971085,40.749485],[-73.971726,40.749755],[-73.971537,40.750015],[-73.971535,40.750014],[-73.971355,40.750262],[-73.970715,40.749992]]]},"properties":{"bbl":"1013350005","addr":"320 East 43 Street","zone":"C5-2","lm":1,"owner":"Ford Foundation","own":"X","floors":11,"year":1967,"lotarea":40684,"bldgarea":299094,"built":7.35,"allowed":10.0,"unbuilt":107813,"ft":9442,"side":"n"}},
{"type":"Feature","geometry":{"type":"Polygon","coordinates":[[[-73.971205,40.749261],[-73.971231,40.749225],[-73.971382,40.749018],[-73.971758,40.749178],[-73.971581,40.749421],[-73.971205,40.749261]]]},"properties":{"bbl":"1013340041","addr":"312 East 42 Street","zone":"R10","lm":0,"owner":"Woodstock Owners Corp","own":"","floors":32,"year":1929,"lotarea":11520,"bldgarea":261401,"built":22.69,"allowed":10.0,"unbuilt":0,"ft":9503,"side":"s"}},
{"type":"Feature","geometry":{"type":"Polygon","coordinates":[[[-73.97092,40.749093],[-73.97107,40.748886],[-73.9711,40.748898],[-73.97134,40.749],[-73.971382,40.749018],[-73.971231,40.749225],[-73.97092,40.749093]]]},"properties":{"bbl":"1013340037","addr":"328 East 42 Street","zone":"PARK","lm":0,"owner":"NYC Department of Parks and Recreation","own":"C","floors":0,"year":0,"lotarea":8375,"bldgarea":0,"built":0.0,"allowed":0.0,"unbuilt":0,"ft":9599,"side":"s"}},
{"type":"Feature","geometry":{"type":"Polygon","coordinates":[[[-73.970529,40.749587],[-73.970691,40.749366],[-73.971059,40.749521],[-73.970897,40.749742],[-73.970686,40.749654],[-73.970637,40.749633],[-73.970583,40.74961],[-73.970529,40.749587]]]},"properties":{"bbl":"1013350012","addr":"327 East 42 Street","zone":"PARK","lm":0,"owner":"NYC Department of Parks and Recreation","own":"C","floors":0,"year":0,"lotarea":9960,"bldgarea":0,"built":0.0,"allowed":0.0,"unbuilt":0,"ft":9606,"side":"n"}},
{"type":"Feature","geometry":{"type":"Polygon","coordinates":[[[-73.97107,40.748886],[-73.97092,40.749093],[-73.970632,40.748971],[-73.970958,40.748521],[-73.97122,40.748633],[-73.971044,40.748875],[-73.97107,40.748886]]]},"properties":{"bbl":"1013340017","addr":"Tudor City Place","zone":"R10","lm":0,"owner":"Tudor City Greens Inc","own":"","floors":0,"year":0,"lotarea":15650,"bldgarea":0,"built":0.0,"allowed":10.0,"unbuilt":156500,"ft":9669,"side":"s"}},
{"type":"Feature","geometry":{"type":"Polygon","coordinates":[[[-73.970432,40.749257],[-73.970691,40.749366],[-73.970529,40.749587],[-73.970347,40.749837],[-73.970087,40.749727],[-73.970432,40.749257]]]},"properties":{"bbl":"1013350019","addr":"Tudor City Place","zone":"R10","lm":0,"owner":"Tudor City Greens Inc","own":"","floors":0,"year":0,"lotarea":15238,"bldgarea":0,"built":0.0,"allowed":10.0,"unbuilt":152380,"ft":9689,"side":"n"}},
{"type":"Feature","geometry":{"type":"Polygon","coordinates":[[[-73.969901,40.749645],[-73.969717,40.749568],[-73.970088,40.749065],[-73.970272,40.749142],[-73.969901,40.749645]]]},"properties":{"bbl":"1013350022","addr":"45 Tudor City Place","zone":"R10","lm":0,"owner":"Prospect Owners Corp","own":"","floors":24,"year":1927,"lotarea":11648,"bldgarea":215715,"built":18.52,"allowed":10.0,"unbuilt":0,"ft":9814,"side":"n"}},
{"type":"Feature","geometry":{"type":"Polygon","coordinates":[[[-73.970239,40.748851],[-73.970584,40.748362],[-73.970786,40.748448],[-73.97044,40.748936],[-73.970239,40.748851]]]},"properties":{"bbl":"1013340022","addr":"25 Tudor City Place","zone":"R10","lm":0,"owner":"25 Tudor Owners","own":"","floors":24,"year":1929,"lotarea":11653,"bldgarea":249299,"built":21.39,"allowed":10.0,"unbuilt":0,"ft":9823,"side":"s"}},
{"type":"Feature","geometry":{"type":"Polygon","coordinates":[[[-73.970518,40.748334],[-73.970584,40.748362],[-73.970239,40.748851],[-73.970173,40.748823],[-73.970518,40.748334]]]},"properties":{"bbl":"1013340023","addr":"725 1 Avenue","zone":"PARK","lm":0,"owner":"NYC Department of Parks and Recreation","own":"C","floors":0,"year":0,"lotarea":4147,"bldgarea":0,"built":0.0,"allowed":0.0,"unbuilt":0,"ft":9861,"side":"s"}},
{"type":"Feature","geometry":{"type":"Polygon","coordinates":[[[-73.970088,40.749065],[-73.969717,40.749568],[-73.969563,40.749503],[-73.969686,40.749337],[-73.969934,40.749],[-73.970007,40.749031],[-73.970088,40.749065]]]},"properties":{"bbl":"1013350023","addr":"741 1 Avenue","zone":"PARK","lm":0,"owner":"NYC Department of Parks and Recreation","own":"C","floors":0,"year":0,"lotarea":10040,"bldgarea":0,"built":0.0,"allowed":0.0,"unbuilt":0,"ft":9873,"side":"n"}},
{"type":"Feature","geometry":{"type":"Polygon","coordinates":[[[-73.966649,40.752256],[-73.965392,40.75172],[-73.965609,40.751456],[-73.965898,40.751103],[-73.9677,40.748906],[-73.967731,40.748919],[-73.968232,40.748308],[-73.968652,40.748484],[-73.968565,40.748604],[-73.968723,40.74867],[-73.96881,40.74855],[-73.969508,40.748843],[-73.968205,40.750627],[-73.967388,40.751746],[-73.967356,40.751733],[-73.967002,40.752217],[-73.966973,40.752237],[-73.966942,40.752253],[-73.966904,40.752268],[-73.966858,40.752279],[-73.966816,40.752284],[-73.966774,40.752284],[-73.966734,40.75228],[-73.966691,40.752268],[-73.966649,40.752256]]]},"properties":{"bbl":"1013540001","addr":"752 1 Avenue","zone":"C5-2","lm":0,"owner":"Dada, LLC","own":"X","floors":39,"year":1952,"lotarea":659375,"bldgarea":2400000,"built":3.64,"allowed":10.0,"unbuilt":4193625,"ft":10105,"side":"n"}},
{"type":"Feature","geometry":{"type":"Polygon","coordinates":[[[-73.968565,40.748604],[-73.968652,40.748484],[-73.96881,40.74855],[-73.968723,40.74867],[-73.968565,40.748604]]]},"properties":{"bbl":"1013540011","addr":"421 East 42 Street","zone":"C5-2","lm":0,"owner":"NYC Transit Authority","own":"C","floors":0,"year":0,"lotarea":2500,"bldgarea":0,"built":0.0,"allowed":10.0,"unbuilt":25000,"ft":10254,"side":"n"}},
{"type":"Feature","geometry":{"type":"Polygon","coordinates":[[[-73.969586,40.747926],[-73.969278,40.748348],[-73.968768,40.748127],[-73.969077,40.747705],[-73.969586,40.747926]]]},"properties":{"bbl":"1013530012","addr":"1 Avenue","zone":"C5-2","lm":0,"owner":"MTA - Bridges and Tunnels","own":"X","floors":0,"year":0,"lotarea":26712,"bldgarea":74250,"built":2.78,"allowed":10.0,"unbuilt":192861,"ft":10270,"side":"s"}},
{"type":"Feature","geometry":{"type":"Polygon","coordinates":[[[-73.968687,40.748191],[-73.968658,40.74817],[-73.968637,40.748151],[-73.968618,40.748131],[-73.968601,40.748104],[-73.968588,40.748073],[-73.968583,40.748048],[-73.968583,40.748002],[-73.968595,40.74796],[-73.968613,40.747928],[-73.96887,40.747616],[-73.969077,40.747705],[-73.968768,40.748127],[-73.969278,40.748348],[-73.969586,40.747926],[-73.970036,40.748121],[-73.969679,40.748608],[-73.968687,40.748191]]]},"properties":{"bbl":"1013530001","addr":"724 1 Avenue","zone":"PARK","lm":0,"owner":"NYC Department of Parks and Recreation","own":"C","floors":1,"year":0,"lotarea":47325,"bldgarea":300,"built":0.01,"allowed":0.0,"unbuilt":0,"ft":10327,"side":"s"}}
]}
